1 10970U          19305.64861111  .00000000  00000-0  00000-0 0 00000
2 10970 097.6600 168.9670 0000000 000.0000 231.7510 15.01920000000000
1 10970U          19305.92291667  .00000000  00000-0  00000-0 0 00000
2 10970 097.6600 169.2380 0000000 000.0000 273.0010 15.01920000000000
1 10970U          19306.29097222  .00000000  00000-0  00000-0 0 00000
2 10970 097.6590 169.6010 0000000 000.0000 100.5010 15.01920000000000
1 10970U          19306.60486111  .00000000  00000-0  00000-0 0 00000
2 10970 097.6580 169.9100 0000000 000.0000 355.5010 15.01920000000000
1 10970U          19306.96805556  .00000000  00000-0  00000-0 0 00000
2 10970 097.6580 170.2680 0000000 000.0000 156.7510 15.01920000000000
1 10970U          19307.30208333  .00000000  00000-0  00000-0 0 00000
2 10970 097.6570 170.5970 0000000 000.0000 160.5020 15.01920000000000
1 10970U          19307.60277778  .00000000  00000-0  00000-0 0 00000
2 10970 097.6570 170.8940 0000000 000.0000 344.2520 15.01920000000000
1 10970U          19308.05902778  .00000000  00000-0  00000-0 0 00000
2 10970 097.6560 171.3430 0000000 000.0000 288.0020 15.01920000000000
1 10970U          19308.40277778  .00000000  00000-0  00000-0 0 00000
2 10970 097.6550 171.6820 0000000 000.0000 344.2520 15.01920000000000
1 10970U          19308.71805556  .00000000  00000-0  00000-0 0 00000
2 10970 097.6550 171.9930 0000000 000.0000 246.7520 15.01920000000000
1 10970U          19309.06597222  .00000000  00000-0  00000-0 0 00000
2 10970 097.6540 172.3360 0000000 000.0000 325.5020 15.01920000000000
1 10970U          19309.26527778  .00000000  00000-0  00000-0 0 00000
2 10970 097.6540 172.5320 0000000 000.0000 321.7520 15.01920000000000
1 10970U          19309.66597222  .00000000  00000-0  00000-0 0 00000
2 10970 097.6530 172.9270 0000000 000.0000 325.5020 15.01920000000000
1 10970U          19310.05902778  .00000000  00000-0  00000-0 0 00000
2 10970 097.6520 173.3150 0000000 000.0000 288.0020 15.01920000000000
1 10970U          19310.25069444  .00000000  00000-0  00000-0 0 00000
2 10970 097.6520 173.5030 0000000 000.0000 243.0020 15.01920000000000
1 10970U          19310.74791667  .00000000  00000-0  00000-0 0 00000
2 10970 097.6510 173.9940 0000000 000.0000 048.0030 15.01920000000000
1 10970U          19311.00277778  .00000000  00000-0  00000-0 0 00000
2 10970 097.6500 174.2450 0000000 000.0000 344.2530 15.01920000000000
1 10970U          19311.33055556  .00000000  00000-0  00000-0 0 00000
2 10970 097.6500 174.5680 0000000 000.0000 314.2530 15.01920000000000
1 10970U          19311.60416667  .00000000  00000-0  00000-0 0 00000
2 10970 097.6490 174.8370 0000000 000.0000 351.7530 15.01920000000000
1 10970U          19311.90347222  .00000000  00000-0  00000-0 0 00000
2 10970 097.6490 175.1320 0000000 000.0000 168.0030 15.01914300000000
1 10970U          19312.20486111  .00000000  00000-0  00000-0 0 00000
2 10970 097.6480 175.4300 0000000 000.0000 355.5030 15.01914300000000
1 10970U          19312.50486111  .00000000  00000-0  00000-0 0 00000
2 10970 097.6480 175.7250 0000000 000.0000 175.5030 15.01914300000000
1 10970U          19312.93125000  .00000000  00000-0  00000-0 0 00000
2 10970 097.6470 176.1450 0000000 000.0000 318.0030 15.01914300000000
1 10970U          19313.20625000  .00000000  00000-0  00000-0 0 00000
2 10970 097.6460 176.4170 0000000 000.0000 003.0030 15.01914300000000
1 10970U          19313.60763889  .00000000  00000-0  00000-0 0 00000
2 10970 097.6460 176.8120 0000000 000.0000 010.5030 15.01914300000000
1 10970U          19313.97152778  .00000000  00000-0  00000-0 0 00000
2 10970 097.6450 177.1710 0000000 000.0000 175.5030 15.01914300000000
1 10970U          19314.14930556  .00000000  00000-0  00000-0 0 00000
2 10970 097.6450 177.3460 0000000 000.0000 055.5030 15.01914300000000
1 10970U          19314.60902778  .00000000  00000-0  00000-0 0 00000
2 10970 097.6440 177.7990 0000000 000.0000 018.0030 15.01914300000000
1 10970U          19314.81527778  .00000000  00000-0  00000-0 0 00000
2 10970 097.6430 178.0020 0000000 000.0000 051.7530 15.01914300000000
1 10970U          19315.28819444  .00000000  00000-0  00000-0 0 00000
2 10970 097.6420 178.4690 0000000 000.0000 085.5030 15.01914300000000
1 10970U          19315.51875000  .00000000  00000-0  00000-0 0 00000
2 10970 097.6420 178.6960 0000000 000.0000 250.5030 15.01914300000000
1 10970U          19315.94444444  .00000000  00000-0  00000-0 0 00000
2 10970 097.6410 179.1150 0000000 000.0000 029.2530 15.01914300000000
1 10970U          19316.26805556  .00000000  00000-0  00000-0 0 00000
2 10970 097.6410 179.4340 0000000 000.0000 336.7530 15.01914300000000
1 10970U          19316.60555556  .00000000  00000-0  00000-0 0 00000
2 10970 097.6400 179.7670 0000000 000.0000 359.2530 15.01914300000000
1 10970U          19316.95555556  .00000000  00000-0  00000-0 0 00000
2 10970 097.6390 180.1120 0000000 000.0000 089.2530 15.01914300000000
1 10970U          19317.29027778  .00000000  00000-0  00000-0 0 00000
2 10970 097.6390 180.4420 0000000 000.0000 096.7530 15.01914300000000
1 10970U          19317.60347222  .00000000  00000-0  00000-0 0 00000
2 10970 097.6380 180.7500 0000000 000.0000 348.0030 15.01914300000000
1 10970U          19317.86666667  .00000000  00000-0  00000-0 0 00000
2 10970 097.6380 181.0100 0000000 000.0000 329.2530 15.01914300000000
1 10970U          19318.19652778  .00000000  00000-0  00000-0 0 00000
2 10970 097.6370 181.3350 0000000 000.0000 310.5030 15.01914300000000
1 10970U          19318.54305556  .00000000  00000-0  00000-0 0 00000
2 10970 097.6360 181.6770 0000000 000.0000 021.7530 15.01914300000000
1 10970U          19318.84444444  .00000000  00000-0  00000-0 0 00000
2 10970 097.6360 181.9740 0000000 000.0000 209.2530 15.01914300000000
1 10970U          19318.89583333  .00000000  00000-0  00000-0 0 00000
2 10970 097.6360 182.0240 0000000 000.0000 126.7530 15.01914300000000
1 10970U          19319.16736111  .00000000  00000-0  00000-0 0 00000
2 10970 097.6350 182.2920 0000000 000.0000 153.0030 15.01914300000000
1 10970U          19319.48750000  .00000000  00000-0  00000-0 0 00000
2 10970 097.6350 182.6070 0000000 000.0000 081.7530 15.01914300000000
1 10970U          19319.81319444  .00000000  00000-0  00000-0 0 00000
2 10970 097.6340 182.9280 0000000 000.0000 040.5030 15.01914300000000
1 10970U          19320.19166667  .00000000  00000-0  00000-0 0 00000
2 10970 097.6330 183.3010 0000000 000.0000 284.2530 15.01914300000000
1 10970U          19320.48472222  .00000000  00000-0  00000-0 0 00000
2 10970 097.6330 183.5900 0000000 000.0000 066.7530 15.01914300000000
1 10970U          19320.85694444  .00000000  00000-0  00000-0 0 00000
2 10970 097.6320 183.9570 0000000 000.0000 276.7530 15.01914300000000
1 10970U          19321.16805556  .00000000  00000-0  00000-0 0 00000
2 10970 097.6310 184.2640 0000000 000.0000 156.7530 15.01914300000000
1 10970U          19321.59236111  .00000000  00000-0  00000-0 0 00000
2 10970 097.6310 184.6820 0000000 000.0000 288.0030 15.01914300000000
1 10970U          19321.95347222  .00000000  00000-0  00000-0 0 00000
2 10970 097.6300 185.0380 0000000 000.0000 078.0030 15.01914300000000
1 10970U          19322.21388889  .00000000  00000-0  00000-0 0 00000
2 10970 097.6300 185.2940 0000000 000.0000 044.2530 15.01914300000000
1 10970U          19322.58402778  .00000000  00000-0  00000-0 0 00000
2 10970 097.6290 185.6590 0000000 000.0000 243.0030 15.01914300000000
1 10970U          19322.81666667  .00000000  00000-0  00000-0 0 00000
2 10970 097.6280 185.8890 0000000 000.0000 059.2530 15.01914300000000
1 10970U          19323.23125000  .00000000  00000-0  00000-0 0 00000
2 10970 097.6280 186.2970 0000000 000.0000 138.0030 15.01914300000000
1 10970U          19323.60555556  .00000000  00000-0  00000-0 0 00000
2 10970 097.6270 186.6660 0000000 000.0000 359.2530 15.01914300000000
1 10970U          19323.93402778  .00000000  00000-0  00000-0 0 00000
2 10970 097.6260 186.9900 0000000 000.0000 333.0030 15.01914300000000
1 10970U          19324.27361111  .00000000  00000-0  00000-0 0 00000
2 10970 097.6260 187.3240 0000000 000.0000 006.7530 15.01914300000000
1 10970U          19324.53888889  .00000000  00000-0  00000-0 0 00000
2 10970 097.6250 187.5860 0000000 000.0000 359.2530 15.01914300000000
1 10970U          19324.94236111  .00000000  00000-0  00000-0 0 00000
2 10970 097.6250 187.9840 0000000 000.0000 018.0020 15.01914300000000
1 10970U          19325.23125000  .00000000  00000-0  00000-0 0 00000
2 10970 097.6240 188.2680 0000000 000.0000 138.0020 15.01914300000000
1 10970U          19325.51458333  .00000000  00000-0  00000-0 0 00000
2 10970 097.6230 188.5480 0000000 000.0000 228.0020 15.01914300000000
1 10970U          19325.83819444  .00000000  00000-0  00000-0 0 00000
2 10970 097.6230 188.8660 0000000 000.0000 175.5020 15.01914300000000
1 10970U          19325.89583333  .00000000  00000-0  00000-0 0 00000
2 10970 097.6230 188.9230 0000000 000.0000 126.7520 15.01914300000000
1 10970U          19326.15347222  .00000000  00000-0  00000-0 0 00000
2 10970 097.6220 189.1770 0000000 000.0000 078.0020 15.01914300000000
1 10970U          19326.60972222  .00000000  00000-0  00000-0 0 00000
2 10970 097.6210 189.6270 0000000 000.0000 021.7520 15.01914300000000
1 10970U          19326.92291667  .00000000  00000-0  00000-0 0 00000
2 10970 097.6210 189.9360 0000000 000.0000 273.0020 15.01914300000000
1 10970U          19327.26458333  .00000000  00000-0  00000-0 0 00000
2 10970 097.6200 190.2720 0000000 000.0000 318.0020 15.01914300000000
1 10970U          19327.49027778  .00000000  00000-0  00000-0 0 00000
2 10970 097.6200 190.4950 0000000 000.0000 096.7520 15.01914300000000
1 10970U          19327.94236111  .00000000  00000-0  00000-0 0 00000
2 10970 097.6190 190.9400 0000000 000.0000 018.0020 15.01914300000000
1 10970U          19328.22916667  .00000000  00000-0  00000-0 0 00000
2 10970 097.6190 191.2230 0000000 000.0000 126.7520 15.01914300000000
